*******************************************************************************
Ephemeris / WWW_USER Wed Mar 27 20:41:39 2019 Pasadena, USA      / Horizons    
*******************************************************************************
Target body name: L2 (392)                        {source: L2_de431}
Center body name: Sun (10)                        {source: DE431mx}
Center-site name: BODY CENTER
*******************************************************************************
Start time      : A.D. 2018-Oct-01 00:00:00.0000 TDB
Stop  time      : A.D. 2040-Dec-31 00:00:00.0000 TDB
Step-size       : 1440 minutes
*******************************************************************************
Center geodetic : 0.00000000,0.00000000,0.0000000 {E-lon(deg),Lat(deg),Alt(km)}
Center cylindric: 0.00000000,0.00000000,0.0000000 {E-lon(deg),Dxy(km),Dz(km)}
Center radii    : 696000.0 x 696000.0 x 696000.0 k{Equator, meridian, pole}    
Output units    : KM-S                                                         
Output type     : LT CORRECTED cartesian states
Output format   : 2 (position and velocity)
Reference frame : ICRF/J2000.0                                                 
Coordinate systm: Earth Mean Equator and Equinox of Reference Epoch            
*******************************************************************************
            JDTDB,            Calendar Date (TDB),                      X,                      Y,                      Z,                     VX,                     VY,                     VZ,
**************************************************************************************************************************************************************************************************
$$SOE
2462970.500000000, A.D. 2031-Apr-14 00:00:00.0000, -1.390341061176653E+08, -5.526213632952367E+07, -2.395360187549962E+07,  1.147117989239790E+01, -2.543621181074858E+01, -1.102590083661743E+01,
2462971.500000000, A.D. 2031-Apr-15 00:00:00.0000, -1.380226494865080E+08, -5.745160712079750E+07, -2.490267761947412E+07,  1.194156798725506E+01, -2.524485370992076E+01, -1.094295581754083E+01,
2462972.500000000, A.D. 2031-Apr-16 00:00:00.0000, -1.369707187734331E+08, -5.962423141309484E+07, -2.584445116775917E+07,  1.240805973130932E+01, -2.504625711344818E+01, -1.085687310498306E+01,
2462973.500000000, A.D. 2031-Apr-17 00:00:00.0000, -1.358786562003855E+08, -6.177938680505040E+07, -2.677865272604147E+07,  1.287052624810739E+01, -2.484049183665252E+01, -1.076768296109913E+01,
2462974.500000000, A.D. 2031-Apr-18 00:00:00.0000, -1.347468150559888E+08, -6.391645700611272E+07, -2.770501514877790E+07,  1.332884024342380E+01, -2.462762951420898E+01, -1.067541643611844E+01,
2462975.500000000, A.D. 2031-Apr-19 00:00:00.0000, -1.335755595578303E+08, -6.603483199233440E+07, -2.862327400668054E+07,  1.378287602842344E+01, -2.440774356703070E+01, -1.058010535408028E+01,
2462976.500000000, A.D. 2031-Apr-20 00:00:00.0000, -1.323652647127696E+08, -6.813390815921091E+07, -2.953316765293443E+07,  1.423250954290327E+01, -2.418090916832266E+01, -1.048178229830195E+01,
2462977.500000000, A.D. 2031-Apr-21 00:00:00.0000, -1.311163161752010E+08, -7.021308847161193E+07, -3.043443728817333E+07,  1.467761837882441E+01, -2.394720320907356E+01, -1.038048059665243E+01,
2462978.500000000, A.D. 2031-Apr-22 00:00:00.0000, -1.298291101032912E+08, -7.227178261068135E+07, -3.132682702416145E+07,  1.511808180408007E+01, -2.370670426336363E+01, -1.027623430674061E+01,
2462979.500000000, A.D. 2031-Apr-23 00:00:00.0000, -1.285040530131464E+08, -7.430940711777508E+07, -3.221008394620943E+07,  1.555378078618166E+01, -2.345949255376639E+01, -1.016907820110039E+01,
2462980.500000000, A.D. 2031-Apr-24 00:00:00.0000, -1.271415616309664E+08, -7.632538553539467E+07, -3.308395817430028E+07,  1.598459801552642E+01, -2.320564991715317E+01, -1.005904775247264E+01,
2462981.500000000, A.D. 2031-Apr-25 00:00:00.0000, -1.257420627432137E+08, -7.831914854520057E+07, -3.394820292295489E+07,  1.641041792786971E+01, -2.294525977103320E+01, -9.946179119231825E+00,
2462982.500000000, A.D. 2031-Apr-26 00:00:00.0000, -1.243059930448716E+08, -8.029013410316400E+07, -3.480257455985523E+07,  1.683112672571611E+01, -2.267840708046925E+01, -9.830509130982861E+00,
2462983.500000000, A.D. 2031-Apr-27 00:00:00.0000, -1.228337989859341E+08, -8.223778757184601E+07, -3.564683266321386E+07,  1.724661239840766E+01, -2.240517832554262E+01, -9.712075274332737E+00,
2462984.500000000, A.D. 2031-Apr-28 00:00:00.0000, -1.213259366162059E+08, -8.416156184990767E+07, -3.648074007793072E+07,  1.765676474084326E+01, -2.212566146925525E+01, -9.590915678816925E+00,
2462985.500000000, A.D. 2031-Apr-29 00:00:00.0000, -1.197828714285386E+08, -8.606091749886686E+07, -3.730406297054200E+07,  1.806147537083915E+01, -2.183994592575898E+01, -9.467069102954598E+00,
2462986.500000000, A.D. 2031-Apr-30 00:00:00.0000, -1.182050782006350E+08, -8.793532286710720E+07, -3.811657088296308E+07,  1.846063774517904E+01, -2.154812252879805E+01, -9.340574920408672E+00,
2462987.500000000, A.D. 2031-May-01 00:00:00.0000, -1.165930408355175E+08, -8.978425421116798E+07, -3.891803678504042E+07,  1.885414717444412E+01, -2.125028350024925E+01, -9.211473106221025E+00,
2462988.500000000, A.D. 2031-May-02 00:00:00.0000, -1.149472522007557E+08, -9.160719581432649E+07, -3.970823712592062E+07,  1.924190083673370E+01, -2.094652241864314E+01, -9.079804223088015E+00,
2462989.500000000, A.D. 2031-May-03 00:00:00.0000, -1.132682139665676E+08, -9.340364010243727E+07, -4.048695188422641E+07,  1.962379779040266E+01, -2.063693418753205E+01, -8.945609407634617E+00,
2462990.500000000, A.D. 2031-May-04 00:00:00.0000, -1.115564364428432E+08, -9.517308775704145E+07, -4.125396461705107E+07,  1.999973898599442E+01, -2.032161500354874E+01, -8.808930356626943E+00,
2462991.500000000, A.D. 2031-May-05 00:00:00.0000, -1.098124384151625E+08, -9.691504782569666E+07, -4.200906250775650E+07,  2.036962727760974E+01, -2.000066232398323E+01, -8.669809313055250E+00,
2462992.500000000, A.D. 2031-May-06 00:00:00.0000, -1.080367469798647E+08, -9.862903782946025E+07, -4.275203641255216E+07,  2.073336743403072E+01, -1.967417483374031E+01, -8.528289052011463E+00,
2462993.500000000, A.D. 2031-May-07 00:00:00.0000, -1.062298973781237E+08, -1.003145838675179E+08, -4.348268090585562E+07,  2.109086614996998E+01, -1.934225241163675E+01, -8.384412866315715E+00,
2462994.500000000, A.D. 2031-May-08 00:00:00.0000, -1.043924328290535E+08, -1.019712207188606E+08, -4.420079432439409E+07,  2.144203205768518E+01, -1.900499609624415E+01, -8.238224551932456E+00,
2462995.500000000, A.D. 2031-May-09 00:00:00.0000, -1.025249043618018E+08, -1.035984919409934E+08, -4.490617881003543E+07,  2.178677573913382E+01, -1.866250805162760E+01, -8.089768393263535E+00,
2462996.500000000, A.D. 2031-May-10 00:00:00.0000, -1.006278706465429E+08, -1.051959499657340E+08, -4.559864035136482E+07,  2.212500973833568E+01, -1.831489153366454E+01, -7.939089148567425E+00,
2462997.500000000, A.D. 2031-May-11 00:00:00.0000, -9.870189782444587E+07, -1.067631561921175E+08, -4.627798882400315E+07,  2.245664857344270E+01, -1.796225085747846E+01, -7.786232035722847E+00,
2462998.500000000, A.D. 2031-May-12 00:00:00.0000, -9.674755933661847E+07, -1.082996810765624E+08, -4.694403802972206E+07,  2.278160874788377E+01, -1.760469136631795E+01, -7.631242718503389E+00,
2462999.500000000, A.D. 2031-May-13 00:00:00.0000, -9.476543575214656E+07, -1.098051042204159E+08, -4.759660573440024E+07,  2.309980875997080E+01, -1.724231940187631E+01, -7.474167293432127E+00,
2463000.500000000, A.D. 2031-May-14 00:00:00.0000, -9.275611459540859E+07, -1.112790144549590E+08, -4.823551370485567E+07,  2.341116911075696E+01, -1.687524227563912E+01, -7.315052277111880E+00,
2463001.500000000, A.D. 2031-May-15 00:00:00.0000, -9.072019017273366E+07, -1.127210099239993E+08, -4.886058774461328E+07,  2.371561231027935E+01, -1.650356824068966E+01, -7.153944593841334E+00,
2463002.500000000, A.D. 2031-May-16 00:00:00.0000, -8.865826339862520E+07, -1.141306981639918E+08, -4.947165772859288E+07,  2.401306288251660E+01, -1.612740646345300E+01, -6.990891563323458E+00,
2463003.500000000, A.D. 2031-May-17 00:00:00.0000, -8.657094162157375E+07, -1.155076961817182E+08, -5.006855763673970E+07,  2.430344736951550E+01, -1.574686699498176E+01, -6.825940888290465E+00,
2463004.500000000, A.D. 2031-May-18 00:00:00.0000, -8.445883844952434E+07, -1.168516305294631E+08, -5.065112558658019E+07,  2.458669433512161E+01, -1.536206074157892E+01, -6.659140641930778E+00,
2463005.500000000, A.D. 2031-May-19 00:00:00.0000, -8.232257357505172E+07, -1.181621373776045E+08, -5.121920386467365E+07,  2.486273436865033E+01, -1.497309943474609E+01, -6.490539255074426E+00,
2463006.500000000, A.D. 2031-May-20 00:00:00.0000, -8.016277260019918E+07, -1.194388625845940E+08, -5.177263895695097E+07,  2.513150008870255E+01, -1.458009560058752E+01, -6.320185503149110E+00,
2463007.500000000, A.D. 2031-May-21 00:00:00.0000, -7.798006686096025E+07, -1.206814617642869E+08, -5.231128157792287E+07,  2.539292614719942E+01, -1.418316252889291E+01, -6.148128492967827E+00,
2463008.500000000, A.D. 2031-May-22 00:00:00.0000, -7.577509325144291E+07, -1.218896003505734E+08, -5.283498669873181E+07,  2.564694923367119E+01, -1.378241424215845E+01, -5.974417649431540E+00,
2463009.500000000, A.D. 2031-May-23 00:00:00.0000, -7.354849404761255E+07, -1.230629536593630E+08, -5.334361357406513E+07,  2.589350807967850E+01, -1.337796546482847E+01, -5.799102702252103E+00,
2463010.500000000, A.D. 2031-May-24 00:00:00.0000, -7.130091673068516E+07, -1.242012069479186E+08, -5.383702576792061E+07,  2.613254346314867E+01, -1.296993159302187E+01, -5.622233672813122E+00,
2463011.500000000, A.D. 2031-May-25 00:00:00.0000, -6.903301381014277E+07, -1.253040554716009E+08, -5.431509117824549E+07,  2.636399821257583E+01, -1.255842866488461E+01, -5.443860861231574E+00,
